[{"OBJECT_NAME":"STARLINK-6178","OBJECT_ID":"2023-061P","EPOCH":"2026-03-09T22:00:01.999584","MEAN_MOTION":15.117437,"ECCENTRICITY":0.00016359,"INCLINATION":43.0005,"RA_OF_ASC_NODE":195.5801,"ARG_OF_PERICENTER":301.8014,"MEAN_ANOMALY":159.6262,"EPHEMERIS_TYPE":0,"CLASSIFICATION_TYPE":"U","NORAD_CAT_ID":56387,"ELEMENT_SET_NO":999,"REV_AT_EPOCH":578,"BSTAR":0.072717287,"MEAN_MOTION_DOT":0.0137484,"MEAN_MOTION_DDOT":0},{"OBJECT_NAME":"TEVEL2-4","OBJECT_ID":"2025-052D","EPOCH":"2026-03-09T16:39:37.129536","MEAN_MOTION":15.30925813,"ECCENTRICITY":0.0004733,"INCLINATION":97.4009,"RA_OF_ASC_NODE":325.1237,"ARG_OF_PERICENTER":95.3468,"MEAN_ANOMALY":264.8313,"EPHEMERIS_TYPE":0,"CLASSIFICATION_TYPE":"U","NORAD_CAT_ID":63213,"ELEMENT_SET_NO":999,"REV_AT_EPOCH":5487,"BSTAR":0.00070362503,"MEAN_MOTION_DOT":0.0002099,"MEAN_MOTION_DDOT":0}]
